NORAD_CAT_ID,OBJECT_NAME,OBJECT_TYPE,EPOCH,MEAN_MOTION,ECCENTRICITY,INCLINATION,RA_OF_ASC_NODE,ARG_OF_PERICENTER,MEAN_ANOMALY,BSTAR,MEAN_MOTION_DOT,MEAN_MOTION_DDOT,TLE_LINE0,TLE_LINE1,TLE_LINE2,SEMIMAJOR_AXIS,PERIOD,APOGEE,PERIGEE,DECAYED
51813.0,STARLINK-3552,PAYLOAD,2024-05-22 20:11:35,15.08842335,0.0001382,53.2187,33.3665,77.9954,282.1193,6.5719e-05,7.58e-06,0.0,0 STARLINK-3552,1 51813U 22017AX  24143.84138800  .00000758  00000-0  65719-4 0  9998,2 51813  53.2187  33.3665 0001382  77.9954 282.1193 15.08842335125189,6917.873,95.437,540.694,538.782,0.0
51813.0,STARLINK-3552,PAYLOAD,2024-05-22 21:46:59,15.0884,0.0001298,53.2186,33.0689,86.0674,274.0466,5.0658e-05,5.18e-06,0.0,0 STARLINK-3552,1 51813U 22017AX  24143.90762906  .00000518  00000-0  50658-4 0  9995,2 51813  53.2186  33.0689 0001298  86.0674 274.0466 15.08840000125086,6917.88,95.438,540.643,538.847,0.0
51813.0,STARLINK-3552,PAYLOAD,2024-05-23 02:33:08,15.08838573,0.0001299,53.2187,32.1771,91.5264,268.5877,1.5645e-05,-3.9e-07,0.0,0 STARLINK-3552,1 51813U 22017AX  24144.10634926 -.00000039  00000-0  15645-4 0  9994,2 51813  53.2187  32.1771 0001299  91.5264 268.5877 15.08838573125116,6917.885,95.438,540.648,538.851,0.0
51813.0,STARLINK-3552,PAYLOAD,2024-05-23 21:37:45,15.08844086,0.000123,53.2175,28.6101,102.015,258.098,-4.2952e-05,-9.71e-06,0.0,0 STARLINK-3552,1 51813U 22017AX  24144.90122601 -.00000971  00000-0 -42952-4 0  9991,2 51813  53.2175  28.6101 0001230 102.0150 258.0980 15.08844086125235,6917.868,95.437,540.584,538.882,0.0
51813.0,STARLINK-3552,PAYLOAD,2024-05-23 23:13:09,15.08844331,0.0001368,53.2192,28.3125,98.0811,262.0337,7.0944e-05,8.41e-06,0.0,0 STARLINK-3552,1 51813U 22017AX  24144.96746611  .00000841  00000-0  70944-4 0  9996,2 51813  53.2192  28.3125 0001368  98.0811 262.0337 15.08844331125354,6917.867,95.437,540.679,538.786,0.0
51813.0,STARLINK-3552,PAYLOAD,2024-05-24 15:07:00,15.08837555,0.0001401,53.2187,25.339,109.7212,250.3931,0.00014233,1.978e-05,0.0,0 STARLINK-3552,1 51813U 22017AX  24145.62986731  .00001978  00000-0  14233-3 0  9999,2 51813  53.2187  25.3390 0001401 109.7212 250.3931 15.08837555125341,6917.888,95.438,540.722,538.784,0.0
51813.0,STARLINK-3552,PAYLOAD,2024-05-24 19:53:10,15.08833126,0.0001321,53.218,24.4451,110.0791,250.0343,7.2415e-05,8.65e-06,0.0,0 STARLINK-3552,1 51813U 22017AX  24145.82859234  .00000865  00000-0  72415-4 0  9999,2 51813  53.2180  24.4451 0001321 110.0791 250.0343 15.08833126125489,6917.901,95.438,540.68,538.853,0.0
51813.0,STARLINK-3552,PAYLOAD,2024-05-24 23:03:57,15.08828531,0.0001294,53.2185,23.8571,103.0814,257.0323,3.9657e-05,3.43e-06,0.0,0 STARLINK-3552,1 51813U 22017AX  24145.96107806  .00000343  00000-0  39657-4 0  9997,2 51813  53.2185  23.8571 0001294 103.0814 257.0323 15.08828531125396,6917.915,95.438,540.676,538.885,0.0
51813.0,STARLINK-3552,PAYLOAD,2024-05-25 08:36:14,15.08845701,0.0001174,53.218,22.0813,148.8232,211.283,0.00014258,1.982e-05,0.0,0 STARLINK-3552,1 51813U 22017AX  24146.35850481  .00001982  00000-0  14258-3 0  9994,2 51813  53.2180  22.0813 0001174 148.8232 211.2830 15.08845701125561,6917.863,95.437,540.54,538.916,0.0
51813.0,STARLINK-3552,PAYLOAD,2024-05-25 21:19:21,15.08833809,0.0001596,53.2188,19.7005,110.7176,249.3987,-3.1379e-05,-7.87e-06,0.0,0 STARLINK-3552,1 51813U 22017AX  24146.88844091 -.00000787  00000-0 -31379-4 0  9990,2 51813  53.2188  19.7005 0001596 110.7176 249.3987 15.08833809125648,6917.899,95.438,540.868,538.66,0.0
51813.0,STARLINK-3552,PAYLOAD,2024-05-25 22:54:44,15.08837326,0.0001134,53.2174,19.402,105.6463,254.4654,-1.5023e-05,-5.27e-06,0.0,0 STARLINK-3552,1 51813U 22017AX  24146.95467812 -.00000527  00000-0 -15023-4 0  9990,2 51813  53.2174  19.4020 0001134 105.6463 254.4654 15.08837326125542,6917.889,95.438,540.538,538.969,0.0
51813.0,STARLINK-3552,PAYLOAD,2024-05-26 22:45:30,15.08837956,0.0001071,53.2172,14.9339,60.3985,299.7113,0.00025925,3.84e-05,0.0,0 STARLINK-3552,1 51813U 22017AX  24147.94827187  .00003840  00000-0  25925-3 0  9995,2 51813  53.2172  14.9339 0001071  60.3985 299.7113 15.08837956125696,6917.887,95.438,540.493,539.011,0.0
51813.0,STARLINK-3552,PAYLOAD,2024-05-27 14:39:20,15.08906544,0.0001533,53.2185,11.9612,128.8212,231.2917,-0.001019,-0.00016498,0.0,0 STARLINK-3552,1 51813U 22017AX  24148.61065817 -.00016498  00000-0 -10190-2 0  9996,2 51813  53.2185  11.9612 0001533 128.8212 231.2917 15.08906544125791,6917.677,95.433,540.602,538.482,0.0
51813.0,STARLINK-3552,PAYLOAD,2024-05-27 19:25:31,15.08838129,0.0001301,53.2176,11.0668,79.3973,280.7166,8.5564e-05,1.074e-05,0.0,0 STARLINK-3552,1 51813U 22017AX  24148.80939650  .00001074  00000-0  85564-4 0  9993,2 51813  53.2176  11.0668 0001301  79.3973 280.7166 15.08838129125934,6917.886,95.438,540.651,538.851,0.0
51813.0,STARLINK-3552,PAYLOAD,2024-05-27 22:36:18,15.08838788,0.0001283,53.2178,10.4721,79.7046,280.409,8.8719e-05,1.124e-05,0.0,0 STARLINK-3552,1 51813U 22017AX  24148.94187609  .00001124  00000-0  88719-4 0  9998,2 51813  53.2178  10.4721 0001283  79.7046 280.4090 15.08838788125847,6917.884,95.438,540.637,538.862,0.0
51813.0,STARLINK-3552,PAYLOAD,2024-05-28 08:08:36,15.08842445,0.0001343,53.2182,8.688,77.9669,282.1474,5.4201e-05,5.75e-06,0.0,0 STARLINK-3552,1 51813U 22017AX  24149.33931459  .00000575  00000-0  54201-4 0  9990,2 51813  53.2182   8.6880 0001343  77.9669 282.1474 15.08842445125902,6917.873,95.437,540.667,538.809,0.0
51813.0,STARLINK-3552,PAYLOAD,2024-05-28 20:51:41,15.08845919,0.0001293,53.2179,6.309,81.0978,279.0161,2.7723e-05,1.53e-06,0.0,0 STARLINK-3552,1 51813U 22017AX  24149.86923064  .00000153  00000-0  27723-4 0  9992,2 51813  53.2179   6.3090 0001293  81.0978 279.0161 15.08845919125984,6917.862,95.437,540.622,538.833,0.0
51813.0,STARLINK-3552,PAYLOAD,2024-05-29 00:02:27,15.08847403,0.000126,53.2177,5.7137,85.19,274.9236,3.8035e-05,3.18e-06,0.0,0 STARLINK-3552,1 51813U 22017AX  24150.00170842  .00000318  00000-0  38035-4 0  9999,2 51813  53.2177   5.7137 0001260  85.1900 274.9236 15.08847403126114,6917.858,95.437,540.594,538.851,0.0
51813.0,STARLINK-3552,PAYLOAD,2024-05-29 20:42:28,15.08841958,0.0001181,53.2174,1.8469,91.2861,268.8266,5.4752e-05,5.84e-06,0.0,0 STARLINK-3552,1 51813U 22017AX  24150.86282997  .00000584  00000-0  54752-4 0  9997,2 51813  53.2174   1.8469 0001181  91.2861 268.8266 15.08841958126240,6917.874,95.437,540.556,538.922,0.0
51813.0,STARLINK-3552,PAYLOAD,2024-05-30 14:11:42,15.08842961,0.0001239,53.2175,358.5745,95.4032,264.7101,5.366e-05,5.66e-06,0.0,0 STARLINK-3552,1 51813U 22017AX  24151.59146854  .00000566  00000-0  53660-4 0  9996,2 51813  53.2175 358.5745 0001239  95.4032 264.7101 15.08842961126248,6917.871,95.437,540.593,538.879,0.0
51813.0,STARLINK-3552,PAYLOAD,2024-05-30 20:33:15,15.088449,0.0001252,53.2176,357.3849,93.9822,266.1313,6.6797e-05,7.75e-06,0.0,0 STARLINK-3552,1 51813U 22017AX  24151.85642642  .00000775  00000-0  66797-4 0  9998,2 51813  53.2176 357.3849 0001252  93.9822 266.1313 15.08844900126286,6917.865,95.437,540.597,538.864,0.0
51813.0,STARLINK-3552,PAYLOAD,2024-05-30 23:44:01,15.08844804,0.0001291,53.2177,356.7911,99.0397,261.0741,6.2444e-05,7.06e-06,0.0,0 STARLINK-3552,1 51813U 22017AX  24151.98890615  .00000706  00000-0  62444-4 0  9996,2 51813  53.2177 356.7911 0001291  99.0397 261.0741 15.08844804126414,6917.866,95.437,540.624,538.838,0.0
51813.0,STARLINK-3552,PAYLOAD,2024-05-31 20:24:02,15.08838925,0.0001194,53.2175,352.9262,79.5854,280.5273,2.7383e-05,1.48e-06,0.0,0 STARLINK-3552,1 51813U 22017AX  24152.85003072  .00000148  00000-0  27383-4 0  9999,2 51813  53.2175 352.9262 0001194  79.5854 280.5273 15.08838925126549,6917.884,95.438,540.575,538.923,0.0
51813.0,STARLINK-3552,PAYLOAD,2024-06-01 05:56:20,15.08848214,0.0001274,53.218,351.1416,74.4847,285.6286,6.6645e-05,7.73e-06,0.0,0 STARLINK-3552,1 51813U 22017AX  24153.24746297  .00000773  00000-0  66645-4 0  9994,2 51813  53.2180 351.1416 0001274  74.4847 285.6286 15.08848214126601,6917.855,95.437,540.602,538.839,0.0
51813.0,STARLINK-3552,PAYLOAD,2024-06-01 20:14:50,15.08833416,0.0001293,53.2181,348.4686,88.926,271.188,-1.2552e-05,-4.88e-06,0.0,0 STARLINK-3552,1 51813U 22017AX  24153.84363655 -.00000488  00000-0 -12552-4 0  9996,2 51813  53.2181 348.4686 0001293  88.9260 271.1880 15.08833416126697,6917.901,95.438,540.66,538.871,0.0
51813.0,STARLINK-3552,PAYLOAD,2024-06-02 05:47:08,15.08842709,0.0001386,53.2189,346.6827,79.3993,280.7156,5.942e-05,6.58e-06,0.0,0 STARLINK-3552,1 51813U 22017AX  24154.24106930  .00000658  00000-0  59420-4 0  9994,2 51813  53.2189 346.6827 0001386  79.3993 280.7156 15.08842709126756,6917.872,95.437,540.696,538.778,0.0
51813.0,STARLINK-3552,PAYLOAD,2024-06-02 21:41:00,15.08829983,0.0001349,53.2193,343.7081,75.8311,284.2831,-4.43e-05,-9.93e-06,0.0,0 STARLINK-3552,1 51813U 22017AX  24154.90348364 -.00000993  00000-0 -44300-4 0  9991,2 51813  53.2193 343.7081 0001349  75.8311 284.2831 15.08829983126742,6917.911,95.438,540.709,538.843,0.0
51813.0,STARLINK-3552,PAYLOAD,2024-06-03 05:37:56,15.0884273,0.00022,53.2188,342.2204,79.24,280.884,4.2972e-05,3.96e-06,0.0,0 STARLINK-3552,1 51813U 22017AX  24155.23467736  .00000396  00000-0  42972-4 0  9991,2 51813  53.2188 342.2204 0002200  79.2400 280.8840 15.08842730126906,6917.872,95.437,541.259,538.215,0.0
51813.0,STARLINK-3552,PAYLOAD,2024-06-03 21:31:47,15.0884169,0.0002925,53.2181,339.2488,81.1741,278.9582,0.00010479,1.38e-05,0.0,0 STARLINK-3552,1 51813U 22017AX  24155.89708186  .00001380  00000-0  10479-3 0  9990,2 51813  53.2181 339.2488 0002925  81.1741 278.9582 15.08841690126896,6917.875,95.437,541.764,537.717,0.0
51813.0,STARLINK-3552,PAYLOAD,2024-06-04 11:50:15,15.08846211,0.0003218,53.2152,336.5731,81.9485,278.1872,0.00021979,3.212e-05,0.0,0 STARLINK-3552,1 51813U 22017AX  24156.49323616  .00003212  00000-0  21979-3 0  9991,2 51813  53.2152 336.5731 0003218  81.9485 278.1872 15.08846211127095,6917.861,95.437,541.953,537.5,0.0
